ONEWEB-0033             
1 45142U 20008M   24225.57968683 -.00000453  00000+0 -13342-2 0  9991
2 45142  87.8977 170.3026 0001901  84.7021 275.4323 13.10377222219990
ONEWEB-0035             
1 45143U 20008N   24225.61124862  .00000685  00000+0  19264-2 0  9994
2 45143  87.8980 170.2805 0001944  80.4248 279.7099 13.10372489220618
ONEWEB-0036             
1 45144U 20008P   24225.60128961  .00000571  00000+0  15997-2 0  9991
2 45144  87.8979 170.2374 0002344  76.7607 283.3782 13.10379111220158
ONEWEB-0038             
1 45145U 20008Q   24225.76155060 -.00000521  00000+0 -15048-2 0  9993
2 45145  87.9000 155.1288 0001854  54.0870 306.0430 13.11415243222857
ONEWEB-0039             
1 45146U 20008R   24225.81208053 -.00000310  00000+0 -92376-3 0  9997
2 45146  87.8981 170.2143 0002353  70.6939 289.4442 13.10377069220754
ONEWEB-0040             
1 45147U 20008S   24225.57636732 -.00000518  00000+0 -15204-2 0  9994
2 45147  87.8987 170.2657 0002030  76.4149 283.7205 13.10375929219643
ONEWEB-0043             
1 45149U 20008U   24225.57802911 -.00000403  00000+0 -11904-2 0  9996
2 45149  87.8981 170.2692 0002414  70.1649 289.9738 13.10376533219966
ONEWEB-0044             
1 45150U 20008V   24225.83533218  .00000172  00000+0  45703-3 0  9994
2 45150  87.8980 170.2131 0002302  72.9618 287.1761 13.10377174221069
